HAWK-11A                
1 62382U 24247F   25110.89563071  .00012637  00000+0  54697-3 0  9990
2 62382  44.9863  70.5012 0001340 186.6226 173.4637 15.22478700 18478
HYPE                    
1 62687U 25009CG  25110.65433760  .00058657  00000+0  22283-2 0  9997
2 62687  97.4429 192.2480 0003238 227.7499 132.3466 15.26589950 14558
HADES-R                 
1 62690U 25009CK  25110.68707214  .00047718  00000+0  18969-2 0  9994
2 62690  97.4103 191.8222 0003167 226.7306 133.3668 15.25134465 14536
HYDRA-T                 
1 62692U 25009CM  25110.67954875  .00049454  00000+0  19549-2 0  9996
2 62692  97.4111 191.8322 0002991 221.3069 138.7943 15.25312894 14538
HULIANWANG DIGUI-11     
1 62971U 25030A   25111.21163331  .00000019  00000+0  16478-3 0  9993
2 62971  50.0021 314.7444 0000756  49.6334 310.4624 13.75391454  9640
HULIANWANG DIGUI-12     
1 62972U 25030B   25111.07138317  .00000020  00000+0  16638-3 0  9994
2 62972  50.0034 315.3464 0000159 157.1202 202.9697 13.75265406  9620
HULIANWANG DIGUI-13     
1 62973U 25030C   25111.06268603  .00000025  00000+0  17098-3 0  9992
2 62973  50.0050 315.3005 0000491 193.2708 166.8171 13.75534451  9625
HULIANWANG DIGUI-14     
1 62974U 25030D   25111.34197232  .00000021  00000+0  16543-3 0  9993
2 62974  50.0045 314.1153 0000741 111.5461 248.5510 13.75988318  9662
HULIANWANG DIGUI-15     
1 62975U 25030E   25110.98667697  .00000021  00000+0  16615-3 0  9990
2 62975  50.0037 315.5667 0000585 188.8782 171.2100 13.75686243  9612
HULIANWANG DIGUI-16     
1 62976U 25030F   25111.12054841  .00000018  00000+0  16285-3 0  9998
2 62976  50.0070 314.9527 0001578 171.3296 188.7624 13.76141628  9638
HULIANWANG DIGUI-17     
1 62977U 25030G   25111.33424457  .00000019  00000+0  16347-3 0  9996
2 62977  50.0004 314.1049 0001958  60.8464 299.2624 13.76312263  9664
HULIANWANG DIGUI-18     
1 62978U 25030H   25110.74354983  .00000005  00000+0  14835-3 0  9992
2 62978  50.0099 316.2982 0000230 271.8054  88.2812 13.76712958  9580
HULIANWANG DIGUI-19     
1 62979U 25030J   25110.61931028  .00000010  00000+0  15349-3 0  9997
2 62979  50.0163 316.9765 0000819 301.4982  58.5830 13.76356625  9565
HYDRA-W                 
1 63490U 25052BL  25111.49539211  .00043030  00000+0  19750-2 0  9993
2 63490  97.4373   6.2052 0012785 171.6434 188.5017 15.20205748  5796
HADES-ICM               
1 63492U 25052BN  25110.90630476  .00030916  00000+0  14361-2 0  9997
2 63492  97.4379   5.6179 0012762 178.1212 182.0073 15.19870849  5708
